AEROCUBE 8C             
1 41853U 16067F   24203.93776568  .00011194  00000+0  72392-3 0  9994
2 41853  98.0910  13.5739 0006572 283.5433  76.5062 15.08365327420626
PROMETHEUS 2-1          
1 41854U 16067G   24203.44685719  .00024297  00000+0  11834-2 0  9999
2 41854  98.1001  20.9914 0011483 300.5357  59.4741 15.18301156420937
PROMETHEUS 2-3          
1 41855U 16067H   24203.44390049  .00023855  00000+0  11639-2 0  9991
2 41855  98.0931  20.4432 0009692 311.2455  48.7941 15.18261796420934
AALTO-1                 
1 42775U 17036L   24203.70806086  .00203800  00000+0  11892-2 0  9993
2 42775  97.0970 233.9933 0005142 114.7751 245.4051 15.77821752394539
CORVUS BC2              
1 42846U 17042X   24203.45923676  .00006566  00000+0  55973-3 0  9995
2 42846  97.3739  26.6579 0006430 310.1676  49.8983 14.98040776382578
CORVUS BC1              
1 42847U 17042Y   24203.75065910  .00005359  00000+0  45578-3 0  9996
2 42847  97.3739  27.3423 0006839 309.2826  50.7790 14.98208212382639
MIRATA                  
1 43015U 17073C   24203.63420614  .00031497  00000+0  14221-2 0  9993
2 43015  97.5910  88.0068 0166436 142.7442 218.5472 15.09301852361526
MAKERSAT 0              
1 43016U 17073D   24203.60884266  .00017633  00000+0  97689-3 0  9994
2 43016  97.5741  81.6471 0194040 165.6246 195.0610 14.99153003361067
GOMX-4B                 
1 43196U 18015E   24203.47674146  .00099035  00000+0  85105-3 0  9995
2 43196  97.6051  19.8506 0007360 186.6585 173.4580 15.69006105360894
GOMX-4A                 
1 43197U 18015F   24203.76696222  .00255770  25562-4  93632-3 0  9996
2 43197  97.5926  26.0915 0005910 195.5783 164.5308 15.88324897361349
SIRION PATHFINDER-2     
1 43759U 18099B   24203.84627216  .00009294  00000+0  68982-3 0  9991
2 43759  97.5244 259.0191 0011442 166.3349 193.8189 15.03212631307713
CORVUS BC4              
1 43767U 18099K   24203.69604263  .00008723  00000+0  66027-3 0  9994
2 43767  97.5100 255.9790 0010238 224.4634 135.5770 15.02500271307570
MOVE-II                 
1 43780U 18099Y   24203.73081628  .00030282  00000+0  15107-2 0  9995
2 43780  97.5191 266.4308 0006539 205.6840 154.4070 15.17446089308167
SPACEBEE-7              
1 43816U 18099BL  24203.67994144  .00021172  00000+0  12074-2 0  9992
2 43816  97.5461 266.9817 0010705 163.7474 196.4102 15.12745191307627
SPACEBEE-6              
1 43818U 18099BN  24203.67224927  .00053160  00000+0  20511-2 0  9996
2 43818  97.5393 272.9448 0009163 164.8723 195.2791 15.26069227308160
SHIELDS 1               
1 43850U 18104B   24203.66415250  .00017898  00000+0  46310-3 0  9993
2 43850  85.0214 259.6890 0008176 306.6130  53.4369 15.38914770311462
SONATE                  
1 44400U 19038Q   24203.94932918  .00031195  00000+0  89064-3 0  9997
2 44400  97.7117 199.6378 0014061 351.0695   9.0295 15.35873406279410
LUCKY-7                 
1 44406U 19038W   24203.93437181  .00059608  00000+0  11537-2 0  9992
2 44406  97.7007 204.2664 0009045 331.8808  28.1951 15.47495712279732
DUCHIFAT-3              
1 44854U 19089C   24203.41645812  .00020265  00000+0  98645-3 0  9993
2 44854  36.9545 201.0029 0004214   0.7188 359.3565 15.17651141253477
M2 PATHFINDER           
1 45727U 20037E   24203.93646459  .00004910  00000+0  42607-3 0  9999
2 45727  97.7778  20.1959 0011542  13.2879 346.8645 14.97466321221140
NETSAT-4                
1 46504U 20068U   24203.86401328  .00013333  00000+0  69586-3 0  9997
2 46504  97.8072 161.9655 0008017 234.8010 125.2471 15.16037869209426
NETSAT-3                
1 46505U 20068V   24203.92802565  .00012581  00000+0  66839-3 0  9995
2 46505  97.8047 161.4940 0007178 244.1472 115.9020 15.15430296209420
NETSAT-1                
1 46506U 20068W   24203.81947493  .00011705  00000+0  65448-3 0  9996
2 46506  97.8071 160.7723 0005909 259.0925 100.9641 15.13632078209363
NETSAT-2                
1 46507U 20068X   24203.88293491  .00015747  00000+0  82214-3 0  9996
2 46507  97.8058 161.6047 0004990 262.7068  97.3597 15.16001446209378
WILDTRACKCUBE-SIMBA     
1 47941U 21022K   24203.88679984  .00020083  00000+0  86361-3 0  9991
2 47941  97.4567 100.3630 0015846  31.3141 328.9036 15.22565661183748
SMOG-1                  
1 47964U 21022AJ  24203.70596650  .01195681  72684-3  25723-2 0  9998
2 47964  97.4454 117.9240 0009581 168.1043 192.0463 15.98570228183683
BCCSAT-1                
1 48041U 21022AK  24203.73912309  .00142725  00000+0  19968-2 0  9994
2 48041  97.4574 112.2107 0002537  38.6900 321.4536 15.56320298183290
BEESAT-7                
1 48084U 21022AN  24203.68850789  .00477707  00000+0  23709-2 0  9997
2 48084  97.4446 114.1820 0006546 128.9106 231.2747 15.80706752183172
BEESAT-8                
1 48085U 21022AP  24203.66878830  .00040481  00000+0  11910-2 0  9999
2 48085  97.4746 106.1531 0011269  17.4628 342.7001 15.34905655183167
LEDSAT                  
1 49069U 21073D   24203.75595593  .00026410  00000+0  10171-2 0  9994
2 49069  97.4363 274.6824 0019584 159.3149 200.8886 15.26153358161722
SITRO-AIS 5 (KATYS)     
1 57176U 23091L   24203.90916920  .00012377  00000+0  78009-3 0  9994
2 57176  97.6098 255.8042 0017105   8.1593 351.9911 15.09162507 58731
SITRO-AIS 6 (CHIRKIN)   
1 57192U 23091AC  24203.89297222  .00012803  00000+0  80544-3 0  9998
2 57192  97.6102 255.8149 0016918   8.0430 352.1066 15.09223896 58736
SITRO-AIS 8 (ANOKHIN)   
1 57193U 23091AD  24203.91936403  .00012802  00000+0  79751-3 0  9990
2 57193  97.6096 255.9251 0016628   9.4881 350.6658 15.09588879 58743
SITRO-AIS 7 (FARTUSHNIY)
1 57194U 23091AE  24203.89903598  .00013077  00000+0  82375-3 0  9998
2 57194  97.6097 255.7999 0016820   8.5216 351.6295 15.09174821 58733
SITRO-AIS 10 (BURDAEV)  
1 57199U 23091AK  24203.91380693  .00014376  00000+0  85164-3 0  9993
2 57199  97.6112 256.9256 0011520 358.4976   1.6218 15.11451533 58803
SITRO-AIS 9 (SHCHUKIN)  
1 57201U 23091AM  24203.91251566  .00014250  00000+0  84470-3 0  9993
2 57201  97.6106 256.9019 0011456 358.4258   1.6934 15.11431022 58804
SITRO-AIS 12 (SMIRENNIY)
1 57204U 23091AQ  24203.87060711  .00013741  00000+0  81041-3 0  9996
2 57204  97.6122 257.0051 0011231 353.5723   6.5361 15.11626886 58809
SITRO-AIS 11 (SHEFFER)  
1 57208U 23091AU  24203.92054019  .00013809  00000+0  81244-3 0  9990
2 57208  97.6115 257.0809 0011095 353.0554   7.0521 15.11715332 58811
SITRO-AIS 29            
1 59052U 24039B   24203.91898736  .00033633  00000+0  11655-2 0  9998
2 59052  97.3929 165.6790 0020069  95.1720 265.1811 15.29564776 21905
SITRO-AIS 30            
1 59053U 24039C   24203.91988699  .00033571  00000+0  11660-2 0  9994
2 59053  97.3927 165.6734 0020171  95.8254 264.5287 15.29489420 21895
SITRO-AIS 31            
1 59054U 24039D   24203.91012245  .00034013  00000+0  11759-2 0  9991
2 59054  97.3928 165.6872 0020063  95.7209 264.6319 15.29639479 21910
SITRO-AIS 33            
1 59055U 24039E   24203.89906660  .00034148  00000+0  11755-2 0  9997
2 59055  97.3932 165.7079 0019833  96.3898 263.9602 15.29782510 21901
SITRO-AIS 35            
1 59056U 24039F   24203.89502829  .00034635  00000+0  11915-2 0  9996
2 59056  97.3931 165.7102 0019642  96.5567 263.7911 15.29804483 21906
SITRO-AIS 32            
1 59057U 24039G   24203.90410121  .00033192  00000+0  11472-2 0  9997
2 59057  97.3932 165.7001 0019671  96.6912 263.6568 15.29661322 21903
SITRO-AIS 34            
1 59058U 24039H   24203.89943233  .00033145  00000+0  11428-2 0  9990
2 59058  97.3933 165.7086 0019853  96.6034 263.7467 15.29737268 21907
SITRO-AIS 36            
1 59059U 24039J   24203.88922733  .00031240  00000+0  10734-2 0  9995
2 59059  97.3931 165.7181 0019440  96.7364 263.6089 15.29869250 21907
SITRO-AIS 49            
1 59060U 24039K   24203.89013168  .00033065  00000+0  11374-2 0  9999
2 59060  97.3931 165.7170 0019467  96.3587 263.9871 15.29820434 21902
SITRO-AIS 50            
1 59061U 24039L   24203.87818572  .00033011  00000+0  11295-2 0  9993
2 59061  97.3929 165.7316 0019372  96.5633 263.7814 15.29995321 21904
SITRO-AIS 51            
1 59062U 24039M   24203.87801540  .00033666  00000+0  11522-2 0  9990
2 59062  97.3929 165.7325 0019388  96.3964 263.9485 15.29982583 21909
SITRO-AIS 52            
1 59063U 24039N   24203.87003537  .00034043  00000+0  11609-2 0  9997
2 59063  97.3931 165.7445 0019239  96.4616 263.8816 15.30100784 21900
SITRO-AIS 25            
1 59066U 24039R   24203.88947324  .00005092  00000+0  48657-3 0  9998
2 59066  95.4021 120.8752 0169021 223.0918 135.6969 14.83276808 21254
SITRO-AIS 26            
1 59067U 24039S   24203.88973497  .00005107  00000+0  48852-3 0  9993
2 59067  95.4021 120.8741 0168947 223.1283 135.6601 14.83242400 21259
SITRO-AIS 27            
1 59068U 24039T   24203.87661326  .00005258  00000+0  50112-3 0  9997
2 59068  95.4023 120.8900 0168547 222.9707 135.8248 14.83418588 21254
SITRO-AIS 28            
1 59071U 24039U   24203.87309158  .00005400  00000+0  51429-3 0  9994
2 59071  95.4024 120.8945 0168388 222.9501 135.8471 14.83461367 21254
OOV-CUBE                
1 60240U 24128F   24203.89106289  .00005064  00000+0  46119-3 0  9991
2 60240  61.9986 120.0004 0010167 268.8230  91.1693 14.96372122  1809
ROBUSTA 3A              
1 60243U 24128J   24203.89619085  .00010364  00000+0  93830-3 0  9998
2 60243  61.9928 120.0084 0012786 259.2787 100.6861 14.95798363  1807
